EUTELSAT 21B            
1 38992U 12062B   25266.79611137  .00000128  00000+0  00000+0 0  9997
2 38992   0.0709 349.0821 0002820 199.0027 123.0114  1.00271939 47157
EUTELSAT 70B            
1 39020U 12069A   25266.92266867 -.00000045  00000+0  00000+0 0  9997
2 39020   0.0654   1.8059 0004023 184.6218 219.2466  1.00271451 46835
EUTELSAT 117 WEST A     
1 39122U 13012A   25266.91146647  .00000000  00000+0  00000+0 0  9991
2 39122   0.0117 157.4241 0002927  31.0355  25.8508  1.00270553 45762
EUTELSAT 7B             
1 39163U 13022A   25266.79325135  .00000047  00000+0  00000+0 0  9995
2 39163   0.0685 353.5056 0000870  25.6077 276.3535  1.00273383 45289
EXPRESS-AT1             
1 39612U 14010A   25266.96086495  .00000000  00000+0  00000+0 0  9993
2 39612   0.0224 192.5217 0000653 260.5208 311.9185  1.00270363 42146
EXPRESS-AT2             
1 39613U 14010B   25266.95318828 -.00000282  00000+0  00000+0 0  9994
2 39613   0.0139 237.3173 0000262 251.7076 357.0247  1.00272369 41835
EUTELSAT 3B             
1 39773U 14030A   25266.79247135  .00000018  00000+0  00000+0 0  9993
2 39773   0.0638   0.2825 0004309 180.2792 110.7060  1.00271766 41392
EUTELSAT 115 WEST B     
1 40425U 15010B   25266.62633061 -.00000027  00000+0  00000+0 0  9998
2 40425   0.0255  30.0752 0000066 339.7462 103.4849  1.00270882 38729
